{
  "type": "FeatureCollection",
  "features": [
    {
      "type": "Feature",
      "properties": {
        "norad_id": 30218,
        "name": "FENGYUN 1C DEB",
        "group": "fengyun-1c-debris",
        "lat": 62.31336373854048,
        "lon": -96.47088615737641,
        "alt_km": 838.8157977121482,
        "timestamp": "2025-12-02T21:34:01.545897+00:00",
        "meta_object_name": "FENGYUN 1C DEB",
        "meta_object_id": "1999-025WB",
        "meta_epoch": "2025-12-01T18:43:35.471424",
        "meta_mean_motion": 14.28578505,
        "meta_eccentricity": 0.0069631,
        "meta_inclination": 98.9875,
        "meta_ra_of_asc_node": 64.8229,
        "meta_arg_of_pericenter": 285.63,
        "meta_mean_anomaly": 202.4412,
        "meta_ephemeris_type": 0,
        "meta_classification_type": "U",
        "meta_norad_cat_id": 30218,
        "meta_element_set_no": 999,
        "meta_rev_at_epoch": 96952,
        "meta_bstar": 0.0024515999,
        "meta_mean_motion_dot": 6.271e-05,
        "meta_mean_motion_ddot": 0,
        "tle_line1": "1 30218U 99025WB  25335.78027166  .00006271  00000+0  24516-2 0  9999",
        "tle_line2": "2 30218  98.9875  64.8229 0069631 285.6300 202.4412 14.28578505969523"
      },
      "geometry": {
        "type": "Point",
        "coordinates": [
          -96.47088615737641,
          62.31336373854048
        ]
      }
    },
    {
      "type": "Feature",
      "properties": {
        "norad_id": 30221,
        "name": "FENGYUN 1C DEB",
        "group": "fengyun-1c-debris",
        "lat": 34.641260098463206,
        "lon": -109.72771185400983,
        "alt_km": 707.4342286425463,
        "timestamp": "2025-12-02T21:34:01.545906+00:00",
        "meta_object_name": "FENGYUN 1C DEB",
        "meta_object_id": "1999-025WE",
        "meta_epoch": "2025-12-02T12:36:34.603200",
        "meta_mean_motion": 14.45782673,
        "meta_eccentricity": 0.0145844,
        "meta_inclination": 98.9571,
        "meta_ra_of_asc_node": 63.6223,
        "meta_arg_of_pericenter": 71.7145,
        "meta_mean_anomaly": 289.9851,
        "meta_ephemeris_type": 0,
        "meta_classification_type": "U",
        "meta_norad_cat_id": 30221,
        "meta_element_set_no": 999,
        "meta_rev_at_epoch": 99253,
        "meta_bstar": 0.00030712,
        "meta_mean_motion_dot": 1.187e-05,
        "meta_mean_motion_ddot": 0,
        "tle_line1": "1 30221U 99025WE  25336.52540050  .00001187  00000+0  30712-3 0  9995",
        "tle_line2": "2 30221  98.9571  63.6223 0145844  71.7145 289.9851 14.45782673992539"
      },
      "geometry": {
        "type": "Point",
        "coordinates": [
          -109.72771185400983,
          34.641260098463206
        ]
      }
    },
    {
      "type": "Feature",
      "properties": {
        "norad_id": 30222,
        "name": "FENGYUN 1C DEB",
        "group": "fengyun-1c-debris",
        "lat": 23.387393985783106,
        "lon": -165.59035061809786,
        "alt_km": 880.0740491936831,
        "timestamp": "2025-12-02T21:34:01.545916+00:00",
        "meta_object_name": "FENGYUN 1C DEB",
        "meta_object_id": "1999-025WF",
        "meta_epoch": "2025-12-02T02:08:04.187904",
        "meta_mean_motion": 14.04072871,
        "meta_eccentricity": 0.00382761,
        "meta_inclination": 98.8433,
        "meta_ra_of_asc_node": 9.7612,
        "meta_arg_of_pericenter": 66.381,
        "meta_mean_anomaly": 318.9363,
        "meta_ephemeris_type": 0,
        "meta_classification_type": "U",
        "meta_norad_cat_id": 30222,
        "meta_element_set_no": 999,
        "meta_rev_at_epoch": 96689,
        "meta_bstar": 0.00013578027,
        "meta_mean_motion_dot": 1.74e-06,
        "meta_mean_motion_ddot": 0,
        "tle_line1": "1 30222U 99025WF  25336.08893736  .00000174  00000+0  13578-3 0  9995",
        "tle_line2": "2 30222  98.8433   9.7612 0038276  66.3810 318.9363 14.04072871966896"
      },
      "geometry": {
        "type": "Point",
        "coordinates": [
          -165.59035061809786,
          23.387393985783106
        ]
      }
    },
    {
      "type": "Feature",
      "properties": {
        "norad_id": 30224,
        "name": "FENGYUN 1C DEB",
        "group": "fengyun-1c-debris",
        "lat": 56.9987961815742,
        "lon": -149.62426123452002,
        "alt_km": 953.3042086550158,
        "timestamp": "2025-12-02T21:34:01.545926+00:00",
        "meta_object_name": "FENGYUN 1C DEB",
        "meta_object_id": "1999-025WH",
        "meta_epoch": "2025-12-02T02:04:51.136608",
        "meta_mean_motion": 13.89851885,
        "meta_eccentricity": 0.01115122,
        "meta_inclination": 99.4851,
        "meta_ra_of_asc_node": 14.6314,
        "meta_arg_of_pericenter": 11.9063,
        "meta_mean_anomaly": 8.3314,
        "meta_ephemeris_type": 0,
        "meta_classification_type": "U",
        "meta_norad_cat_id": 30224,
        "meta_element_set_no": 999,
        "meta_rev_at_epoch": 95593,
        "meta_bstar": 0.00036252911,
        "meta_mean_motion_dot": 4.22e-06,
        "meta_mean_motion_ddot": 0,
        "tle_line1": "1 30224U 99025WH  25336.08670297  .00000422  00000+0  36253-3 0  9993",
        "tle_line2": "2 30224  99.4851  14.6314 0111512  11.9063   8.3314 13.89851885955935"
      },
      "geometry": {
        "type": "Point",
        "coordinates": [
          -149.62426123452002,
          56.9987961815742
        ]
      }
    },
    {
      "type": "Feature",
      "properties": {
        "norad_id": 30225,
        "name": "FENGYUN 1C DEB",
        "group": "fengyun-1c-debris",
        "lat": 63.92195104892095,
        "lon": -157.89837233738942,
        "alt_km": 762.9006534757809,
        "timestamp": "2025-12-02T21:34:01.545936+00:00",
        "meta_object_name": "FENGYUN 1C DEB",
        "meta_object_id": "1999-025WJ",
        "meta_epoch": "2025-12-02T07:31:54.924096",
        "meta_mean_motion": 14.1517319,
        "meta_eccentricity": 0.0100482,
        "meta_inclination": 98.6612,
        "meta_ra_of_asc_node": 3.3877,
        "meta_arg_of_pericenter": 115.4984,
        "meta_mean_anomaly": 261.4752,
        "meta_ephemeris_type": 0,
        "meta_classification_type": "U",
        "meta_norad_cat_id": 30225,
        "meta_element_set_no": 999,
        "meta_rev_at_epoch": 97389,
        "meta_bstar": 0.00021615,
        "meta_mean_motion_dot": 3.99e-06,
        "meta_mean_motion_ddot": 0,
        "tle_line1": "1 30225U 99025WJ  25336.31383014  .00000399  00000+0  21615-3 0  9997",
        "tle_line2": "2 30225  98.6612   3.3877 0100482 115.4984 261.4752 14.15173190973896"
      },
      "geometry": {
        "type": "Point",
        "coordinates": [
          -157.89837233738942,
          63.92195104892095
        ]
      }
    },
    {
      "type": "Feature",
      "properties": {
        "norad_id": 30229,
        "name": "FENGYUN 1C DEB",
        "group": "fengyun-1c-debris",
        "lat": -12.607686766239745,
        "lon": -146.4317213524161,
        "alt_km": 710.9721097148713,
        "timestamp": "2025-12-02T21:34:01.545946+00:00",
        "meta_object_name": "FENGYUN 1C DEB",
        "meta_object_id": "1999-025WN",
        "meta_epoch": "2025-12-02T02:52:08.079744",
        "meta_mean_motion": 14.60236753,
        "meta_eccentricity": 0.00381348,
        "meta_inclination": 99.0643,
        "meta_ra_of_asc_node": 34.7632,
        "meta_arg_of_pericenter": 73.1287,
        "meta_mean_anomaly": 345.9311,
        "meta_ephemeris_type": 0,
        "meta_classification_type": "U",
        "meta_norad_cat_id": 30229,
        "meta_element_set_no": 999,
        "meta_rev_at_epoch": 98771,
        "meta_bstar": 0.0021328861,
        "meta_mean_motion_dot": 0.00010351,
        "meta_mean_motion_ddot": 0,
        "tle_line1": "1 30229U 99025WN  25336.11953796  .00010351  00000+0  21329-2 0  9999",
        "tle_line2": "2 30229  99.0643  34.7632 0038134  73.1287 345.9311 14.60236753987716"
      },
      "geometry": {
        "type": "Point",
        "coordinates": [
          -146.4317213524161,
          -12.607686766239745
        ]
      }
    },
    {
      "type": "Feature",
      "properties": {
        "norad_id": 30231,
        "name": "FENGYUN 1C DEB",
        "group": "fengyun-1c-debris",
        "lat": -16.98748211414986,
        "lon": 24.553469185199333,
        "alt_km": 832.1281482179793,
        "timestamp": "2025-12-02T21:34:01.545956+00:00",
        "meta_object_name": "FENGYUN 1C DEB",
        "meta_object_id": "1999-025WQ",
        "meta_epoch": "2025-12-02T03:13:37.217856",
        "meta_mean_motion": 14.1160723,
        "meta_eccentricity": 0.01289696,
        "meta_inclination": 98.8064,
        "meta_ra_of_asc_node": 21.089,
        "meta_arg_of_pericenter": 59.2454,
        "meta_mean_anomaly": 3.9034,
        "meta_ephemeris_type": 0,
        "meta_classification_type": "U",
        "meta_norad_cat_id": 30231,
        "meta_element_set_no": 999,
        "meta_rev_at_epoch": 96870,
        "meta_bstar": 0.00065900004,
        "meta_mean_motion_dot": 1.252e-05,
        "meta_mean_motion_ddot": 0,
        "tle_line1": "1 30231U 99025WQ  25336.13445854  .00001252  00000+0  65900-3 0  9999",
        "tle_line2": "2 30231  98.8064  21.0890 0128969  59.2454   3.9034 14.11607230968704"
      },
      "geometry": {
        "type": "Point",
        "coordinates": [
          24.553469185199333,
          -16.98748211414986
        ]
      }
    }
  ]
}